NORAD_CAT_ID,OBJECT_NAME,OBJECT_TYPE,EPOCH,MEAN_MOTION,ECCENTRICITY,INCLINATION,RA_OF_ASC_NODE,ARG_OF_PERICENTER,MEAN_ANOMALY,BSTAR,MEAN_MOTION_DOT,MEAN_MOTION_DDOT,TLE_LINE0,TLE_LINE1,TLE_LINE2,SEMIMAJOR_AXIS,PERIOD,APOGEE,PERIGEE,DECAYED
51976.0,STARLINK-3663,PAYLOAD,2024-03-09 05:43:27,15.08845104,0.0001726,53.2158,78.0687,96.1163,264.0026,0.0002117,3.083e-05,0.0,0 STARLINK-3663,1 51976U 22025W   24069.23851540  .00003083  00000-0  21170-3 0  9996,2 51976  53.2158  78.0687 0001726  96.1163 264.0026 15.08845104111900,6917.865,95.437,540.924,538.536,0.0
51976.0,STARLINK-3663,PAYLOAD,2024-03-09 10:29:36,15.08847757,0.0001699,53.2158,77.1768,96.9288,263.1897,0.0002133,3.109e-05,0.0,0 STARLINK-3663,1 51976U 22025W   24069.43723350  .00003109  00000-0  21330-3 0  9992,2 51976  53.2158  77.1768 0001699  96.9288 263.1897 15.08847757110827,6917.857,95.437,540.897,538.546,0.0
51976.0,STARLINK-3663,PAYLOAD,2024-03-10 05:34:15,15.0883141,0.000154,53.2157,73.6058,97.6952,262.4216,-0.00012135,-2.218e-05,0.0,0 STARLINK-3663,1 51976U 22025W   24070.23212242 -.00002218  00000-0 -12135-3 0  9990,2 51976  53.2157  73.6058 0001540  97.6952 262.4216 15.08831410112053,6917.907,95.438,540.837,538.706,0.0
51976.0,STARLINK-3663,PAYLOAD,2024-03-10 07:09:40,15.08789998,0.000173,53.2168,73.3093,99.2186,260.9002,0.00055911,8.609e-05,0.0,0 STARLINK-3663,1 51976U 22025W   24070.29838080  .00008609  00000-0  55911-3 0  9997,2 51976  53.2168  73.3093 0001730  99.2186 260.9002 15.08789998112069,6918.033,95.441,541.095,538.701,0.0
51976.0,STARLINK-3663,PAYLOAD,2024-03-10 23:03:30,15.08830486,0.000141,53.2165,70.3334,89.6167,270.4986,-4.4176e-05,-9.91e-06,0.0,0 STARLINK-3663,1 51976U 22025W   24070.96077203 -.00000991  00000-0 -44176-4 0  9993,2 51976  53.2165  70.3334 0001410  89.6167 270.4986 15.08830486111052,6917.909,95.438,540.75,538.799,0.0
51976.0,STARLINK-3663,PAYLOAD,2024-03-11 05:25:02,15.0883546,0.00017,53.2172,69.1472,112.7696,247.3476,2.2214e-05,6.5e-07,0.0,0 STARLINK-3663,1 51976U 22025W   24071.22572672  .00000065  00000-0  22214-4 0  9992,2 51976  53.2172  69.1472 0001700 112.7696 247.3476 15.08835460112208,6917.894,95.438,540.935,538.583,0.0
51976.0,STARLINK-3663,PAYLOAD,2024-03-11 07:00:26,15.08834792,0.0001445,53.2174,68.8524,97.5298,262.5859,1.2265e-05,-9.3e-07,0.0,0 STARLINK-3663,1 51976U 22025W   24071.29196830 -.00000093  00000-0  12265-4 0  9994,2 51976  53.2174  68.8524 0001445  97.5298 262.5859 15.08834792111107,6917.896,95.438,540.761,538.762,0.0
51976.0,STARLINK-3663,PAYLOAD,2024-03-12 05:15:49,15.08846464,0.0001342,53.2165,64.6875,93.5793,266.5352,0.00026655,3.958e-05,0.0,0 STARLINK-3663,1 51976U 22025W   24072.21931785  .00003958  00000-0  26655-3 0  9992,2 51976  53.2165  64.6875 0001342  93.5793 266.5352 15.08846464112351,6917.861,95.437,540.654,538.797,0.0
51976.0,STARLINK-3663,PAYLOAD,2024-03-12 22:45:03,15.08848522,0.0001978,53.2153,61.415,85.2877,274.8341,0.00018186,2.608e-05,0.0,0 STARLINK-3663,1 51976U 22025W   24072.94796153  .00002608  00000-0  18186-3 0  9991,2 51976  53.2153  61.4150 0001978  85.2877 274.8341 15.08848522111351,6917.854,95.437,541.088,538.351,0.0
51976.0,STARLINK-3663,PAYLOAD,2024-03-13 05:06:36,15.08837308,0.0001079,53.2157,60.2264,96.5269,263.5846,-6.1816e-05,-1.271e-05,0.0,0 STARLINK-3663,1 51976U 22025W   24073.21292263 -.00001271  00000-0 -61816-4 0  9991,2 51976  53.2157  60.2264 0001079  96.5269 263.5846 15.08837308112503,6917.889,95.438,540.5,539.007,0.0
51976.0,STARLINK-3663,PAYLOAD,2024-03-13 06:41:59,15.08828919,0.0001185,53.2157,59.9315,115.2891,244.8224,-0.00035593,-5.946e-05,0.0,0 STARLINK-3663,1 51976U 22025W   24073.27916349 -.00005946  00000-0 -35593-3 0  9990,2 51976  53.2157  59.9315 0001185 115.2891 244.8224 15.08828919111401,6917.914,95.438,540.599,538.959,0.0
51976.0,STARLINK-3663,PAYLOAD,2024-03-13 16:14:19,15.08826186,0.0001253,53.2153,58.1434,97.6032,262.5103,-0.00019232,-3.346e-05,0.0,0 STARLINK-3663,1 51976U 22025W   24073.67661153 -.00003346  00000-0 -19232-3 0  9998,2 51976  53.2153  58.1434 0001253  97.6032 262.5103 15.08826186112572,6917.923,95.438,540.654,538.921,0.0
51976.0,STARLINK-3663,PAYLOAD,2024-03-13 22:35:52,15.08821025,0.0001365,53.2162,56.9531,99.1009,261.0138,-0.00021412,-3.692e-05,0.0,0 STARLINK-3663,1 51976U 22025W   24073.94157512 -.00003692  00000-0 -21412-3 0  9994,2 51976  53.2162  56.9531 0001365  99.1009 261.0138 15.08821025111502,6917.938,95.439,540.748,538.859,0.0
51976.0,STARLINK-3663,PAYLOAD,2024-03-14 04:57:24,15.08827625,0.0001402,53.216,55.7672,92.7074,267.4078,-4.2529e-05,-9.64e-06,0.0,0 STARLINK-3663,1 51976U 22025W   24074.20653655 -.00000964  00000-0 -42529-4 0  9995,2 51976  53.2160  55.7672 0001402  92.7074 267.4078 15.08827625111545,6917.918,95.438,540.753,538.813,0.0
51976.0,STARLINK-3663,PAYLOAD,2024-03-14 22:26:39,15.08835441,0.0001207,53.2161,52.4947,98.7288,261.3841,0.00043408,6.626e-05,0.0,0 STARLINK-3663,1 51976U 22025W   24074.93518266  .00006626  00000-0  43408-3 0  9998,2 51976  53.2161  52.4947 0001207  98.7288 261.3841 15.08835441111659,6917.894,95.438,540.594,538.924,0.0
51976.0,STARLINK-3663,PAYLOAD,2024-03-15 04:48:12,15.08845172,0.0001359,53.2162,51.307,92.3909,267.7238,0.00071709,0.00011145,0.0,0 STARLINK-3663,1 51976U 22025W   24075.20014316  .00011145  00000-0  71709-3 0  9993,2 51976  53.2162  51.3070 0001359  92.3909 267.7238 15.08845172112803,6917.865,95.437,540.67,538.789,0.0
51976.0,STARLINK-3663,PAYLOAD,2024-03-15 22:17:26,15.08860598,0.0001366,53.2162,48.0351,94.7573,265.3575,0.00065464,0.00010152,0.0,0 STARLINK-3663,1 51976U 22025W   24075.92877575  .00010152  00000-0  65464-3 0  9994,2 51976  53.2162  48.0351 0001366  94.7573 265.3575 15.08860598111805,6917.817,95.436,540.627,538.737,0.0
51976.0,STARLINK-3663,PAYLOAD,2024-03-16 07:49:44,15.08870149,0.0001435,53.217,46.2511,98.1807,261.9348,0.000644,9.985e-05,0.0,0 STARLINK-3663,1 51976U 22025W   24076.32620800  .00009985  00000-0  64400-3 0  9997,2 51976  53.2170  46.2511 0001435  98.1807 261.9348 15.08870149112979,6917.788,95.436,540.646,538.661,0.0
51976.0,STARLINK-3663,PAYLOAD,2024-03-16 22:08:12,15.08859306,0.0001565,53.2177,43.5752,95.6067,264.5103,0.00033104,4.987e-05,0.0,0 STARLINK-3663,1 51976U 22025W   24076.92236581  .00004987  00000-0  33104-3 0  9996,2 51976  53.2177  43.5752 0001565  95.6067 264.5103 15.08859306111954,6917.821,95.436,540.769,538.604,0.0
51976.0,STARLINK-3663,PAYLOAD,2024-03-17 04:29:44,15.08853229,0.0001432,53.2181,42.3861,88.5581,271.5575,9.7721e-05,1.268e-05,0.0,0 STARLINK-3663,1 51976U 22025W   24077.18732562  .00001268  00000-0  97721-4 0  9990,2 51976  53.2181  42.3861 0001432  88.5581 271.5575 15.08853229113100,6917.84,95.437,540.696,538.714,0.0
51976.0,STARLINK-3663,PAYLOAD,2024-03-17 21:58:59,15.08851373,0.0001501,53.2185,39.1159,90.3786,269.7378,4.5316e-05,4.33e-06,0.0,0 STARLINK-3663,1 51976U 22025W   24077.91596147  .00000433  00000-0  45316-4 0  9994,2 51976  53.2185  39.1159 0001501  90.3786 269.7378 15.08851373112100,6917.846,95.437,540.749,538.672,0.0
51976.0,STARLINK-3663,PAYLOAD,2024-03-18 04:20:31,15.0885389,0.0001528,53.2184,37.9266,95.8411,264.2755,0.00010094,1.319e-05,0.0,0 STARLINK-3663,1 51976U 22025W   24078.18091819  .00001319  00000-0  10094-3 0  9998,2 51976  53.2184  37.9266 0001528  95.8411 264.2755 15.08853890112147,6917.838,95.437,540.76,538.646,0.0
51976.0,STARLINK-3663,PAYLOAD,2024-03-18 20:14:22,15.08845313,0.0001729,53.2187,34.9523,110.1035,250.0144,5.0597e-05,5.17e-06,0.0,0 STARLINK-3663,1 51976U 22025W   24078.84332012  .00000517  00000-0  50597-4 0  9996,2 51976  53.2187  34.9523 0001729 110.1035 250.0144 15.08845313113359,6917.864,95.437,540.925,538.533,0.0
51976.0,STARLINK-3663,PAYLOAD,2024-03-18 21:49:46,15.08842579,0.0001511,53.2186,34.6541,98.7961,261.3202,2.311e-05,8e-07,0.0,0 STARLINK-3663,1 51976U 22025W   24078.90956119  .00000080  00000-0  23110-4 0  9999,2 51976  53.2186  34.6541 0001511  98.7961 261.3202 15.08842579112252,6917.873,95.437,540.783,538.692,0.0
51976.0,STARLINK-3663,PAYLOAD,2024-03-19 02:35:55,15.088405,0.0001501,53.2186,33.7618,96.6662,263.4501,1.5883e-06,-2.63e-06,0.0,0 STARLINK-3663,1 51976U 22025W   24079.10828289 -.00000263  00000-0  15883-5 0  9991,2 51976  53.2186  33.7618 0001501  96.6662 263.4501 15.08840500113394,6917.879,95.438,540.782,538.705,0.0
51976.0,STARLINK-3663,PAYLOAD,2024-03-20 00:51:17,15.0886884,0.0001333,53.218,29.5967,94.4011,265.7134,0.0003693,5.599e-05,0.0,0 STARLINK-3663,1 51976U 22025W   24080.03562298  .00005599  00000-0  36930-3 0  9990,2 51976  53.2180  29.5967 0001333  94.4011 265.7134 15.08868840113535,6917.792,95.436,540.579,538.735,0.0
51976.0,STARLINK-3663,PAYLOAD,2024-03-20 05:37:28,15.08834659,0.0001415,53.2185,28.7072,104.1142,256.0008,-0.00017561,-3.081e-05,0.0,0 STARLINK-3663,1 51976U 22025W   24080.23435377 -.00003081  00000-0 -17561-3 0  9994,2 51976  53.2185  28.7072 0001415 104.1142 256.0008 15.08834659113560,6917.897,95.438,540.741,538.783,0.0
51976.0,STARLINK-3663,PAYLOAD,2024-03-21 13:25:11,15.08835288,0.0001317,53.2175,22.7559,107.2096,252.9041,9.6989e-06,-1.34e-06,0.0,0 STARLINK-3663,1 51976U 22025W   24081.55916198 -.00000134  00000-0  96989-5 0  9993,2 51976  53.2175  22.7559 0001317 107.2096 252.9041 15.08835288113769,6917.895,95.438,540.671,538.849,0.0
51976.0,STARLINK-3663,PAYLOAD,2024-03-22 05:19:01,15.08854116,0.000137,53.2176,19.7842,69.3871,290.7268,0.00052692,8.111e-05,0.0,0 STARLINK-3663,1 51976U 22025W   24082.22155050  .00008111  00000-0  52692-3 0  9993,2 51976  53.2176  19.7842 0001370  69.3871 290.7268 15.08854116113862,6917.837,95.437,540.65,538.754,0.0
51976.0,STARLINK-3663,PAYLOAD,2024-03-22 19:37:31,15.08819456,0.0001285,53.219,17.1059,92.6871,267.4268,-0.00033803,-5.66e-05,0.0,0 STARLINK-3663,1 51976U 22025W   24082.81772667 -.00005660  00000-0 -33803-3 0  9998,2 51976  53.2190  17.1059 0001285  92.6871 267.4268 15.08819456113953,6917.943,95.439,540.697,538.919,0.0
